#aV2006  7  6  0  0   .00000000      96 DD+AD WGS84 FIT  NGA
## 1382 345600.00000000   900.00000000 53922  .0000000000000
+   29     1  2  3  4  5  6  7  8  9 10 11 13 14 15 16 17 18
+         19 20 21 22 23 24 25 26 27 28 29 30  0  0  0  0  0
+          0  0  0  0  0  0  0  0  0  0  0  0  0  0  0  0  0
+          0  0  0  0  0  0  0  0  0  0  0  0  0  0  0  0  0
+          0  0  0  0  0  0  0  0  0  0  0  0  0  0  0  0  0
++         0  0  0  0  0  0  0  0  0  0  0  0  0  0  0  0  0
++         0  0  0  0  0  0  0  0  0  0  0  0  0  0  0  0  0
++         0  0  0  0  0  0  0  0  0  0  0  0  0  0  0  0  0
++         0  0  0  0  0  0  0  0  0  0  0  0  0  0  0  0  0
++         0  0  0  0  0  0  0  0  0  0  0  0  0  0  0  0  0
%c cc cc ccc ccc cccc cccc cccc cccc ccccc ccccc ccccc ccccc
%c cc cc ccc ccc cccc cccc cccc cccc ccccc ccccc ccccc ccccc
%f  0.0000000  0.000000000  0.00000000000  0.000000000000000
%f  0.0000000  0.000000000  0.00000000000  0.000000000000000
%i    0    0    0    0      0      0      0      0         0
%i    0    0    0    0      0      0      0      0         0
/*      NGA, ST. LOUIS,MO.                                  
/*   EPHEMERIS COMPUTED FROM  3 DAYS OF DATA                
/* CCCCCCCCCCCCCCCCCCCCCCCCCCCCCCCCCCCCCCCCCCCCCCCCCCCCCCCCC
/* CCCCCCCCCCCCCCCCCCCCCCCCCCCCCCCCCCCCCCCCCCCCCCCCCCCCCCCCC
*  2006  7  6  8 30   .00000000                                                 
P  1  -9095.309204  17908.251472  17544.278275     63.909480                    
V  1 -19864.364297   9190.724568 -19949.977524       .020330                    
P  2  -3164.322296 -17717.383525  19351.300099     11.163193                    
V  2  22455.429528  11251.746408  13580.080246       .035171                    
P  3  -2317.300359  18854.975133 -18609.222687    128.695488                    
V  3 -20326.580939  12008.883095  15145.199050       .898259                    
P  4  10140.158818 -11856.985072  21479.022940    268.849034                    
V  4  23451.162853  14130.578896  -2919.647234       .078289                    
P  5 -13037.809027 -16886.307041  15719.724328    197.610968                    
V  5    573.316983 -20458.839709 -21058.799070       .358411                    
P  6 -23310.382527   3774.582622  12426.252097    582.834807                    
V  6  11589.606499 -10703.974763  25325.929163       .077413                    
P  7 -18314.009345  18032.555484  -6598.616181    541.385822                    
V  7  -9244.520230   2036.609391  29565.845993      -.005484                    
P  8  17444.332072  -4854.381121 -19713.337417    -71.509227                    
V  8  20339.522578  13782.789281  14310.190002      -.012363                    
P  9 -20262.857507 -16135.971156  -7049.188634     26.966557                    
V  9   8306.511858   1706.665423 -29920.634445       .014242                    
P 10  -1140.820087 -26269.783832  -2359.826665     86.144341                    
V 10   2710.227039  -2852.720522  32051.392123       .005502                    
P 11  22640.564699  13198.927463  -5141.543701    337.652119                    
V 11  -7636.274808   1781.797328 -29186.883639       .022759                    
P 13  23339.355044  -3919.085022  11911.188172     74.991210                    
V 13 -12599.563185   8728.384059  27394.053846       .030265                    
P 14 -20900.268261  15589.804613   4954.911028    -10.468594                    
V 14  -6382.993475   1315.277365 -31527.648936       .008066                    
P 15 -17303.662947   5130.342249 -19767.616082    640.278468                    
V 15 -19873.369381 -14645.393911  13286.439529       .063119                    
P 16  -2224.965569  26244.648704   2993.385840     54.615400                    
V 16  -2817.372832  -3723.435162  31561.714000       .027928                    
P 17  21237.122049 -15403.869403   3781.534017    100.086294                    
V 17   5625.119687     84.039735 -31310.152013       .004313                    
P 18 -15221.704586   2716.674788 -21462.733501   -242.015436                    
V 18    549.402905 -27545.930797  -4166.902331      -.014289                    
P 19   8008.447006  12999.869199 -21623.493340     -1.147029                    
V 19 -24706.285636  12593.061252  -1516.469314       .023940                    
P 20  13255.645283  13516.431847  18546.809140    -24.533323                    
V 20  -1194.279966  23764.690855 -16356.098542       .004627                    
P 21 -22619.883924  -1995.524933 -14135.734625     39.960538                    
V 21 -14034.248770 -11325.653063  23398.966451       .023365                    
P 22 -12048.606716  17424.179388 -15857.490951    113.576474                    
V 22  -1136.028310 -20515.222928 -21488.166043       .035538                    
P 23  17272.833042   5363.262869  19413.018968    138.681341                    
V 23 -20829.324362  13471.321004  14570.532868      -.004100                    
P 24  17986.511051  -4550.212165  19341.607833     18.551638                    
V 24  19557.330029  13913.774055 -14830.088253       .028429                    
P 25  -3216.844337  15449.224602  21750.366634     87.936658                    
V 25 -24497.396373 -10670.633085   4169.172275       .749274                    
P 26  -5955.498947 -13525.653823 -22445.926144   -170.299198                    
V 26  24264.578092 -12895.984611   1923.182670      -.128634                    
P 27  23415.741912   2140.880391 -12050.315083     56.678221                    
V 27  13449.357885   9229.218312  26139.643825       .017534                    
P 28  12989.006846 -13661.365563 -18277.107002     23.737339                    
V 28   1416.202215  23960.941428 -16977.222152      -.007419                    
P 29  -2157.235113 -15176.389945 -21417.561386    626.701505                    
V 29  24148.442923 -13620.965455   7418.510422       .032532                    
P 30 -15397.476147  -3530.952921  21080.627111      2.821834                    
V 30   -606.976486 -27475.464720  -4861.145837       .010687                    
EOF
